NORAD_CAT_ID,OBJECT_NAME,OBJECT_TYPE,EPOCH,MEAN_MOTION,ECCENTRICITY,INCLINATION,RA_OF_ASC_NODE,ARG_OF_PERICENTER,MEAN_ANOMALY,BSTAR,MEAN_MOTION_DOT,MEAN_MOTION_DDOT,TLE_LINE0,TLE_LINE1,TLE_LINE2,SEMIMAJOR_AXIS,PERIOD,APOGEE,PERIGEE,DECAYED
27216,PSLV DEB,DEBRIS,2019-07-30 08:44:31,15.02915065,0.0034128,98.191,175.2087,107.2251,47.021,2.5061999999999998e-05,2.7000000000000004e-06,0.0,0 PSLV DEB,1 27216U 01049FL  19211.36424816  .00000270  00000-0  25062-4 0  9998,2 27216  98.1910 175.2087 0034128 107.2251  47.0210 15.02915065953627,6936.05,95.814,581.586,534.244,0.0
27216,PSLV DEB,DEBRIS,2019-07-30 21:07:00,15.02915419,0.0034134,98.1909,175.7538,105.6159,316.6545,3.0339000000000002e-05,3.42e-06,0.0,0 PSLV DEB,1 27216U 01049FL  19211.87986616 +.00000342 +00000-0 +30339-4 0  9998,2 27216 098.1909 175.7538 0034134 105.6159 316.6545 15.02915419953705,6936.049,95.814,581.589,534.238,0.0
27216,PSLV DEB,DEBRIS,2019-07-31 10:10:42,15.02916168,0.0034079,98.191,176.3292,103.8663,21.2053,4.019e-05,4.76e-06,0.0,0 PSLV DEB,1 27216U 01049FL  19212.42410851  .00000476  00000-0  40190-4 0  9997,2 27216  98.1910 176.3292 0034079 103.8663  21.2053 15.02916168953782,6936.047,95.814,581.549,534.274,0.0
27216,PSLV DEB,DEBRIS,2019-07-31 21:02:37,15.02915894,0.0034086,98.191,176.8078,102.4412,310.5495,3.5796e-05,4.16e-06,0.0,0 PSLV DEB,1 27216U 01049FL  19212.87682719 +.00000416 +00000-0 +35796-4 0  9990,2 27216 098.1910 176.8078 0034086 102.4412 310.5495 15.02915894953851,6936.047,95.814,581.555,534.27,0.0
27216,PSLV DEB,DEBRIS,2019-08-01 21:00:42,15.02917029,0.0034024999999999997,98.1909,177.8633,99.2238,313.6995,4.7149e-05,5.700000000000001e-06,0.0,0 PSLV DEB,1 27216U 01049FL  19213.87549128 +.00000570 +00000-0 +47149-4 0  9993,2 27216 098.1909 177.8633 0034025 099.2238 313.6995 15.02917029954008,6936.044,95.814,581.509,534.309,0.0
27216,PSLV DEB,DEBRIS,2019-08-02 20:52:35,15.02918415,0.0033975000000000003,98.191,178.9144,96.0269,293.6013,5.7838000000000004e-05,7.16e-06,0.0,0 PSLV DEB,1 27216U 01049FL  19214.86985872 +.00000716 +00000-0 +57838-4 0  9991,2 27216 098.1910 178.9144 0033975 096.0269 293.6013 15.02918415954155,6936.04,95.814,581.47,534.34,0.0
27216,PSLV DEB,DEBRIS,2019-08-03 20:50:44,15.02920271,0.0033951,98.1912,179.9702,92.8329,296.9799,7.1392e-05,9e-06,0.0,0 PSLV DEB,1 27216U 01049FL  19215.86856755  .00000900  00000-0  71392-4 0  9995,2 27216  98.1912 179.9702 0033951  92.8329 296.9799 15.02920271954300,6936.034000000002,95.81299999999999,581.448,534.35,0.0
27216,PSLV DEB,DEBRIS,2019-08-04 20:57:36,15.029226199999998,0.0033929000000000003,98.1914,181.0323,89.6039,333.1625,8.5585e-05,1.093e-05,0.0,0 PSLV DEB,1 27216U 01049FL  19216.87333500 +.00001093 +00000-0 +85585-4 0  9998,2 27216 098.1914 181.0323 0033929 089.6039 333.1625 15.02922620954450,6936.026999999999,95.81299999999999,581.425,534.359,0.0
27216,PSLV DEB,DEBRIS,2019-08-05 20:53:01,15.02925684,0.0033881999999999996,98.1917,182.0861,86.353,326.3941,0.00010257,1.324e-05,0.0,0 PSLV DEB,1 27216U 01049FL  19217.87015295 +.00001324 +00000-0 +10257-3 0  9997,2 27216 098.1917 182.0861 0033882 086.3530 326.3941 15.02925684954604,6936.017,95.81299999999999,581.383,534.382,0.0
27216,PSLV DEB,DEBRIS,2019-08-06 03:18:53,15.02927174,0.0033885999999999994,98.1919,182.3693,85.4951,336.1874,0.00011223,1.455e-05,0.0,0 PSLV DEB,1 27216U 01049FL  19218.13811667  .00001455  00000-0  11223-3 0  9993,2 27216  98.1919 182.3693 0033886  85.4951 336.1874 15.02927174954647,6936.013000000001,95.81299999999999,581.381,534.374,0.0
27216,PSLV DEB,DEBRIS,2019-08-07 08:30:31,15.02930801,0.0033888000000000004,98.1921,183.6551,81.562,77.4986,0.00012077,1.572e-05,0.0,0 PSLV DEB,1 27216U 01049FL  19219.35452712  .00001572  00000-0  12077-3 0  9998,2 27216  98.1921 183.6551 0033888  81.5620  77.4986 15.02930801954829,6936.0019999999995,95.81299999999999,581.371,534.362,0.0
27216,PSLV DEB,DEBRIS,2019-08-07 20:43:14,15.02932196,0.0033896,98.1922,184.19299999999998,79.9515,310.5186,0.00012097,1.574e-05,0.0,0 PSLV DEB,1 27216U 01049FL  19219.86336774 +.00001574 +00000-0 +12097-3 0  9997,2 27216 098.1922 184.1930 0033896 079.9515 310.5186 15.02932196954901,6935.9969999999985,95.81299999999999,581.373,534.352,0.0
27216,PSLV DEB,DEBRIS,2019-08-08 03:14:41,15.02933314,0.0033885999999999994,98.1923,184.4805,79.0835,341.2321,0.00012426,1.619e-05,0.0,0 PSLV DEB,1 27216U 01049FL  19220.13519767 +.00001619 +00000-0 +12426-3 0  9990,2 27216 098.1923 184.4805 0033886 079.0835 341.2321 15.02933314954940,6935.994000000002,95.81299999999999,581.362,534.356,0.0
27216,PSLV DEB,DEBRIS,2019-08-09 09:54:18,15.02937233,0.0033893,98.1926,185.8311,75.0142,53.1556,0.000123,1.602e-05,0.0,0 PSLV DEB,1 27216U 01049FL  19221.41271981  .00001602  00000-0  12300-3 0  9998,2 27216  98.1926 185.8311 0033893  75.0142  53.1556 15.02937233955130,6935.982,95.81200000000001,581.355,534.339,0.0
27216,PSLV DEB,DEBRIS,2019-08-10 20:44:57,15.029421300000001,0.0033871,98.1931,187.3665,70.3425,348.274,0.00012043,1.567e-05,0.0,0 PSLV DEB,1 27216U 01049FL  19222.86455756  .00001567  00000-0  12043-3 0  9996,2 27216  98.1931 187.3665 0033871  70.3425 348.2740 15.02942130955352,6935.967,95.81200000000001,581.325,534.339,0.0
27216,PSLV DEB,DEBRIS,2019-08-12 20:33:40,15.02948474,0.003389,98.1938,189.4731,63.9679,326.7842,0.00011103,1.4400000000000001e-05,0.0,0 PSLV DEB,1 27216U 01049FL  19224.85671576  .00001440  00000-0  11103-3 0  9993,2 27216  98.1938 189.4731 0033890  63.9679 326.7842 15.02948474955650,6935.946999999999,95.81200000000001,581.318,534.306,0.0
27216,PSLV DEB,DEBRIS,2019-08-13 20:31:46,15.02951168,0.0033931999999999994,98.1944,190.5295,60.8461,330.0729,0.0001034,1.336e-05,0.0,0 PSLV DEB,1 27216U 01049FL  19225.85539942 +.00001336 +00000-0 +10340-3 0  9990,2 27216 098.1944 190.5295 0033932 060.8461 330.0729 15.02951168955800,6935.939,95.811,581.339,534.269,0.0
27216,PSLV DEB,DEBRIS,2019-08-14 03:02:09,15.02951982,0.0033935000000000002,98.1945,190.8161,59.9945,356.8164,0.00010264,1.326e-05,0.0,0 PSLV DEB,1 27216U 01049FL  19226.12649481  .00001326  00000-0  10264-3 0  9995,2 27216  98.1945 190.8161 0033935  59.9945 356.8164 15.02951982955842,6935.936,95.811,581.339,534.264,0.0
27216,PSLV DEB,DEBRIS,2019-08-14 20:37:10,15.02953798,0.0033941,98.1947,191.59099999999998,57.6704,0.8317,9.6604e-05,1.244e-05,0.0,0 PSLV DEB,1 27216U 01049FL  19226.85915150 +.00001244 +00000-0 +96604-4 0  9996,2 27216 098.1947 191.5910 0033941 057.6704 000.8317 15.02953798955954,6935.931,95.811,581.337,534.255,0.0
27216,PSLV DEB,DEBRIS,2019-08-15 09:48:57,15.02955192,0.003394,98.195,192.1727,55.9325,95.7388,9.300899999999999e-05,1.195e-05,0.0,0 PSLV DEB,1 27216U 01049FL  19227.40899491  .00001195  00000-0  93009-4 0  9998,2 27216  98.1950 192.1727 0033940  55.9325  95.7388 15.02955192956031,6935.927,95.811,581.332,534.251,0.0
27216,PSLV DEB,DEBRIS,2019-08-16 20:24:01,15.02958678,0.003393,98.1955,193.697,51.3541,332.4008,8.478e-05,1.083e-05,0.0,0 PSLV DEB,1 27216U 01049FL  19228.85002241  .00001083  00000-0  84780-4 0  9999,2 27216  98.1955 193.6970 0033930  51.3541 332.4008 15.02958678956246,6935.916,95.811,581.314,534.247,0.0
27216,PSLV DEB,DEBRIS,2019-08-17 20:23:55,15.02960578,0.0033933999999999995,98.1956,194.7542,48.2048,342.4619,7.814600000000001e-05,9.92e-06,0.0,0 PSLV DEB,1 27216U 01049FL  19229.84994757 +.00000992 +00000-0 +78146-4 0  9998,2 27216 098.1956 194.7542 0033934 048.2048 342.4619 15.02960578956404,6935.91,95.811,581.311,534.239,0.0
27216,PSLV DEB,DEBRIS,2019-08-18 11:12:44,15.02961958,0.0033939,98.1959,195.4075,46.3064,81.949,7.5928e-05,9.62e-06,0.0,0 PSLV DEB,1 27216U 01049FL  19230.46718205  .00000962  00000-0  75928-4 0  9992,2 27216  98.1959 195.4075 0033939  46.3064  81.9490 15.02961958956492,6935.906,95.811,581.311,534.231,0.0
27216,PSLV DEB,DEBRIS,2019-08-18 20:29:45,15.02962604,0.0033962,98.196,195.8167,45.0949,14.8033,7.3514e-05,9.29e-06,0.0,0 PSLV DEB,1 27216U 01049FL  19230.85399851 +.00000929 +00000-0 +73514-4 0  9999,2 27216 098.1960 195.8167 0033962 045.0949 014.8033 15.02962604956558,6935.904,95.811,581.3240000000002,534.2130000000002,0.0
27216,PSLV DEB,DEBRIS,2019-08-19 09:41:02,15.02963764,0.0033958,98.1962,196.3979,43.3941,107.8766,7.227e-05,9.13e-06,0.0,0 PSLV DEB,1 27216U 01049FL  19231.40350652 +.00000913 +00000-0 +72270-4 0  9998,2 27216 098.1962 196.3979 0033958 043.3941 107.8766 15.02963764956638,6935.9,95.811,581.318,534.212,0.0
27216,PSLV DEB,DEBRIS,2019-08-20 09:39:01,15.02965667,0.0033950000000000004,98.1963,197.4542,40.2926,110.6995,6.9577e-05,8.76e-06,0.0,0 PSLV DEB,1 27216U 01049FL  19232.40209812  .00000876  00000-0  69577-4 0  9994,2 27216  98.1963 197.4542 0033950  40.2926 110.6995 15.02965667956784,6935.894,95.811,581.307,534.212,0.0
27216,PSLV DEB,DEBRIS,2019-08-20 20:17:52,15.02966588,0.0033946,98.1964,197.9235,38.9594,350.9735,6.9328e-05,8.73e-06,0.0,0 PSLV DEB,1 27216U 01049FL  19232.84574303 +.00000873 +00000-0 +69328-4 0  9993,2 27216 098.1964 197.9235 0033946 038.9594 350.9735 15.02966588956851,6935.891,95.811,581.3009999999998,534.212,0.0
27216,PSLV DEB,DEBRIS,2019-08-22 20:13:46,15.02970138,0.0033858000000000004,98.1968,200.0361,32.705999999999996,356.5546,6.436899999999999e-05,8.05e-06,0.0,0 PSLV DEB,1 27216U 01049FL  19234.84289997 +.00000805 +00000-0 +64369-4 0  9992,2 27216 098.1968 200.0361 0033858 032.7060 356.5546 15.02970138957155,6935.8809999999985,95.81,581.229,534.262,0.0
27216,PSLV DEB,DEBRIS,2019-08-23 17:24:52,15.02971642,0.0033787,98.197,200.97,29.8394,92.51799999999999,6.253e-05,7.8e-06,0.0,0 PSLV DEB,1 27216U 01049FL  19235.72560365  .00000780  00000-0  62530-4 0  9991,2 27216  98.1970 200.9700 0033787  29.8394  92.5180 15.02971642957288,6935.876,95.81,581.175,534.307,0.0
27216,PSLV DEB,DEBRIS,2019-08-24 17:22:58,15.0297346,0.0033751,98.197,202.0266,26.725,95.8646,6.2446e-05,7.79e-06,0.0,0 PSLV DEB,1 27216U 01049FL  19236.72428448 +.00000779 +00000-0 +62446-4 0  9991,2 27216 098.1970 202.0266 0033751 026.7250 095.8646 15.02973460957436,6935.87,95.81,581.145,534.326,0.0
